SL-4 R/B                
1 39679U 14021B   26004.17804360  .00016278  00000+0  37936-3 0  9997
2 39679  51.6091 291.5035 0100010 227.4099 131.8415 15.37282910646342
ALOS-2                  
1 39766U 14029A   26004.60295821  .00006701  00000+0  90339-3 0  9992
2 39766  97.9221 104.1236 0001364 101.0851 259.0514 14.79471501627392
YAOGAN-29               
1 41038U 15069A   26004.62673115  .00001182  00000+0  15251-3 0  9998
2 41038  98.0196  32.8700 0001645 145.2282 214.9039 14.82914333546383
ASTRO-H (HITOMI)        
1 41337U 16012A   26004.43813736  .00004620  00000+0  27509-3 0  9992
2 41337  31.0013  51.0220 0009554  47.2892 312.8549 15.09533007542515
HXMT (HUIYAN)           
1 42758U 17034A   26004.51589735  .00008162  00000+0  41672-3 0  9995
2 42758  43.0155  13.2131 0032492 191.3585 168.6533 15.16572706472790
CZ-2C R/B               
1 43521U 18054D   26004.40218418  .00149063  00000+0  76203-3 0  9996
2 43521  35.1337  26.6286 0011708  11.1398 348.9594 15.79805476418635
SAOCOM 1A               
1 43641U 18076A   26004.62549778  .00000279  00000+0  41631-4 0  9996
2 43641  97.8839 193.7143 0001394  82.9346 277.2025 14.82164454391873
H-2A R/B                
1 43682U 18084L   26004.53125938  .00023813  00000+0  62339-3 0  9994
2 43682  98.8757 208.3522 0025930 246.1755 113.6767 15.38394378395908
SAOCOM 1B               
1 46265U 20059A   26004.65672269  .00000496  00000+0  68864-4 0  9998
2 46265  97.8835 192.8444 0001406  84.3811 275.7563 14.82168290289266
CSS (TIANHE)            
1 48274U 21035A   26004.63858975  .00015464  00000+0  18794-3 0  9990
2 48274  41.4652 237.5900 0010669 219.4125 140.5938 15.60171241267600
COSMOS 2550             
1 48865U 21056A   26004.41828530 -.00000167  00000+0  75036-6 0  9999
2 48865  67.1441 235.3376 0008460 269.5365  90.4820 15.33830382253604
CZ-2C R/B               
1 52794U 22058K   26004.19031066  .00035699  00000+0  60828-3 0  9990
2 52794  50.1911 288.9531 0043768 290.4488  69.1784 15.49899082200119
