CCSDS_OMM_VERS = 2.0
CREATION_DATE  = 
ORIGINATOR     = 

OBJECT_NAME    = SL-4 R/B
OBJECT_ID      = 2014-021B
CENTER_NAME    = EARTH
REF_FRAME      = TEME
TIME_SYSTEM    = UTC
MEAN_ELEMENT_THEORY = SGP/SGP4

EPOCH          = 2026-01-04T04:16:22.967040
MEAN_MOTION    = 15.37282910
ECCENTRICITY   = .01000103
INCLINATION    = 51.6091
RA_OF_ASC_NODE = 291.5035
ARG_OF_PERICENTER = 227.4099
MEAN_ANOMALY   = 131.8415

EPHEMERIS_TYPE = 0
CLASSIFICATION_TYPE = U
NORAD_CAT_ID   = 39679
ELEMENT_SET_NO = 999
REV_AT_EPOCH   = 64634
BSTAR          = .37936295E-3
MEAN_MOTION_DOT = .16278E-3
MEAN_MOTION_DDOT = 0

CCSDS_OMM_VERS = 2.0
CREATION_DATE  = 
ORIGINATOR     = 

OBJECT_NAME    = ALOS-2
OBJECT_ID      = 2014-029A
CENTER_NAME    = EARTH
REF_FRAME      = TEME
TIME_SYSTEM    = UTC
MEAN_ELEMENT_THEORY = SGP/SGP4

EPOCH          = 2026-01-04T14:28:15.589344
MEAN_MOTION    = 14.79471501
ECCENTRICITY   = .00013642
INCLINATION    = 97.9221
RA_OF_ASC_NODE = 104.1236
ARG_OF_PERICENTER = 101.0851
MEAN_ANOMALY   = 259.0514

EPHEMERIS_TYPE = 0
CLASSIFICATION_TYPE = U
NORAD_CAT_ID   = 39766
ELEMENT_SET_NO = 999
REV_AT_EPOCH   = 62739
BSTAR          = .90338912E-3
MEAN_MOTION_DOT = .6701E-4
MEAN_MOTION_DDOT = 0

CCSDS_OMM_VERS = 2.0
CREATION_DATE  = 
ORIGINATOR     = 

OBJECT_NAME    = YAOGAN-29
OBJECT_ID      = 2015-069A
CENTER_NAME    = EARTH
REF_FRAME      = TEME
TIME_SYSTEM    = UTC
MEAN_ELEMENT_THEORY = SGP/SGP4

EPOCH          = 2026-01-04T15:02:29.571360
MEAN_MOTION    = 14.82914333
ECCENTRICITY   = .00016459
INCLINATION    = 98.0196
RA_OF_ASC_NODE = 32.8700
ARG_OF_PERICENTER = 145.2282
MEAN_ANOMALY   = 214.9039

EPHEMERIS_TYPE = 0
CLASSIFICATION_TYPE = U
NORAD_CAT_ID   = 41038
ELEMENT_SET_NO = 999
REV_AT_EPOCH   = 54638
BSTAR          = .15250552E-3
MEAN_MOTION_DOT = .1182E-4
MEAN_MOTION_DDOT = 0

CCSDS_OMM_VERS = 2.0
CREATION_DATE  = 
ORIGINATOR     = 

OBJECT_NAME    = ASTRO-H (HITOMI)
OBJECT_ID      = 2016-012A
CENTER_NAME    = EARTH
REF_FRAME      = TEME
TIME_SYSTEM    = UTC
MEAN_ELEMENT_THEORY = SGP/SGP4

EPOCH          = 2026-01-04T10:30:55.067904
MEAN_MOTION    = 15.09533007
ECCENTRICITY   = .00095544
INCLINATION    = 31.0013
RA_OF_ASC_NODE = 51.0220
ARG_OF_PERICENTER = 47.2892
MEAN_ANOMALY   = 312.8549

EPHEMERIS_TYPE = 0
CLASSIFICATION_TYPE = U
NORAD_CAT_ID   = 41337
ELEMENT_SET_NO = 999
REV_AT_EPOCH   = 54251
BSTAR          = .27509121E-3
MEAN_MOTION_DOT = .462E-4
MEAN_MOTION_DDOT = 0

CCSDS_OMM_VERS = 2.0
CREATION_DATE  = 
ORIGINATOR     = 

OBJECT_NAME    = HXMT (HUIYAN)
OBJECT_ID      = 2017-034A
CENTER_NAME    = EARTH
REF_FRAME      = TEME
TIME_SYSTEM    = UTC
MEAN_ELEMENT_THEORY = SGP/SGP4

EPOCH          = 2026-01-04T12:22:53.531040
MEAN_MOTION    = 15.16572706
ECCENTRICITY   = .00324928
INCLINATION    = 43.0155
RA_OF_ASC_NODE = 13.2131
ARG_OF_PERICENTER = 191.3585
MEAN_ANOMALY   = 168.6533

EPHEMERIS_TYPE = 0
CLASSIFICATION_TYPE = U
NORAD_CAT_ID   = 42758
ELEMENT_SET_NO = 999
REV_AT_EPOCH   = 47279
BSTAR          = .41671768E-3
MEAN_MOTION_DOT = .8162E-4
MEAN_MOTION_DDOT = 0

CCSDS_OMM_VERS = 2.0
CREATION_DATE  = 
ORIGINATOR     = 

OBJECT_NAME    = CZ-2C R/B
OBJECT_ID      = 2018-054D
CENTER_NAME    = EARTH
REF_FRAME      = TEME
TIME_SYSTEM    = UTC
MEAN_ELEMENT_THEORY = SGP/SGP4

EPOCH          = 2026-01-04T09:39:08.713152
MEAN_MOTION    = 15.79805476
ECCENTRICITY   = .00117084
INCLINATION    = 35.1337
RA_OF_ASC_NODE = 26.6286
ARG_OF_PERICENTER = 11.1398
MEAN_ANOMALY   = 348.9594

EPHEMERIS_TYPE = 0
CLASSIFICATION_TYPE = U
NORAD_CAT_ID   = 43521
ELEMENT_SET_NO = 999
REV_AT_EPOCH   = 41863
BSTAR          = .76203174E-3
MEAN_MOTION_DOT = .149063E-2
MEAN_MOTION_DDOT = 0

CCSDS_OMM_VERS = 2.0
CREATION_DATE  = 
ORIGINATOR     = 

OBJECT_NAME    = SAOCOM 1A
OBJECT_ID      = 2018-076A
CENTER_NAME    = EARTH
REF_FRAME      = TEME
TIME_SYSTEM    = UTC
MEAN_ELEMENT_THEORY = SGP/SGP4

EPOCH          = 2026-01-04T15:00:43.008192
MEAN_MOTION    = 14.82164454
ECCENTRICITY   = .00013942
INCLINATION    = 97.8839
RA_OF_ASC_NODE = 193.7143
ARG_OF_PERICENTER = 82.9346
MEAN_ANOMALY   = 277.2025

EPHEMERIS_TYPE = 0
CLASSIFICATION_TYPE = U
NORAD_CAT_ID   = 43641
ELEMENT_SET_NO = 999
REV_AT_EPOCH   = 39187
BSTAR          = .41630567E-4
MEAN_MOTION_DOT = .279E-5
MEAN_MOTION_DDOT = 0

CCSDS_OMM_VERS = 2.0
CREATION_DATE  = 
ORIGINATOR     = 

OBJECT_NAME    = H-2A R/B
OBJECT_ID      = 2018-084L
CENTER_NAME    = EARTH
REF_FRAME      = TEME
TIME_SYSTEM    = UTC
MEAN_ELEMENT_THEORY = SGP/SGP4

EPOCH          = 2026-01-04T12:45:00.810432
MEAN_MOTION    = 15.38394378
ECCENTRICITY   = .00259301
INCLINATION    = 98.8757
RA_OF_ASC_NODE = 208.3522
ARG_OF_PERICENTER = 246.1755
MEAN_ANOMALY   = 113.6767

EPHEMERIS_TYPE = 0
CLASSIFICATION_TYPE = U
NORAD_CAT_ID   = 43682
ELEMENT_SET_NO = 999
REV_AT_EPOCH   = 39590
BSTAR          = .62339377E-3
MEAN_MOTION_DOT = .23813E-3
MEAN_MOTION_DDOT = 0

CCSDS_OMM_VERS = 2.0
CREATION_DATE  = 
ORIGINATOR     = 

OBJECT_NAME    = SAOCOM 1B
OBJECT_ID      = 2020-059A
CENTER_NAME    = EARTH
REF_FRAME      = TEME
TIME_SYSTEM    = UTC
MEAN_ELEMENT_THEORY = SGP/SGP4

EPOCH          = 2026-01-04T15:45:40.840416
MEAN_MOTION    = 14.82168290
ECCENTRICITY   = .0001406
INCLINATION    = 97.8835
RA_OF_ASC_NODE = 192.8444
ARG_OF_PERICENTER = 84.3811
MEAN_ANOMALY   = 275.7563

EPHEMERIS_TYPE = 0
CLASSIFICATION_TYPE = U
NORAD_CAT_ID   = 46265
ELEMENT_SET_NO = 999
REV_AT_EPOCH   = 28926
BSTAR          = .68864026E-4
MEAN_MOTION_DOT = .496E-5
MEAN_MOTION_DDOT = 0

CCSDS_OMM_VERS = 2.0
CREATION_DATE  = 
ORIGINATOR     = 

OBJECT_NAME    = CSS (TIANHE)
OBJECT_ID      = 2021-035A
CENTER_NAME    = EARTH
REF_FRAME      = TEME
TIME_SYSTEM    = UTC
MEAN_ELEMENT_THEORY = SGP/SGP4

EPOCH          = 2026-01-04T15:19:34.154400
MEAN_MOTION    = 15.60171241
ECCENTRICITY   = .00106698
INCLINATION    = 41.4652
RA_OF_ASC_NODE = 237.5900
ARG_OF_PERICENTER = 219.4125
MEAN_ANOMALY   = 140.5938

EPHEMERIS_TYPE = 0
CLASSIFICATION_TYPE = U
NORAD_CAT_ID   = 48274
ELEMENT_SET_NO = 999
REV_AT_EPOCH   = 26760
BSTAR          = .18793644E-3
MEAN_MOTION_DOT = .15464E-3
MEAN_MOTION_DDOT = 0

CCSDS_OMM_VERS = 2.0
CREATION_DATE  = 
ORIGINATOR     = 

OBJECT_NAME    = COSMOS 2550
OBJECT_ID      = 2021-056A
CENTER_NAME    = EARTH
REF_FRAME      = TEME
TIME_SYSTEM    = UTC
MEAN_ELEMENT_THEORY = SGP/SGP4

EPOCH          = 2026-01-04T10:02:19.849920
MEAN_MOTION    = 15.33830382
ECCENTRICITY   = .00084602
INCLINATION    = 67.1441
RA_OF_ASC_NODE = 235.3376
ARG_OF_PERICENTER = 269.5365
MEAN_ANOMALY   = 90.4820

EPHEMERIS_TYPE = 0
CLASSIFICATION_TYPE = U
NORAD_CAT_ID   = 48865
ELEMENT_SET_NO = 999
REV_AT_EPOCH   = 25360
BSTAR          = .750358E-6
MEAN_MOTION_DOT = -.167E-5
MEAN_MOTION_DDOT = 0

CCSDS_OMM_VERS = 2.0
CREATION_DATE  = 
ORIGINATOR     = 

OBJECT_NAME    = CZ-2C R/B
OBJECT_ID      = 2022-058K
CENTER_NAME    = EARTH
REF_FRAME      = TEME
TIME_SYSTEM    = UTC
MEAN_ELEMENT_THEORY = SGP/SGP4

EPOCH          = 2026-01-04T04:34:02.841024
MEAN_MOTION    = 15.49899082
ECCENTRICITY   = .0043768
INCLINATION    = 50.1911
RA_OF_ASC_NODE = 288.9531
ARG_OF_PERICENTER = 290.4488
MEAN_ANOMALY   = 69.1784

EPHEMERIS_TYPE = 0
CLASSIFICATION_TYPE = U
NORAD_CAT_ID   = 52794
ELEMENT_SET_NO = 999
REV_AT_EPOCH   = 20011
BSTAR          = .60828E-3
MEAN_MOTION_DOT = .35699E-3
MEAN_MOTION_DDOT = 0

